{
  "type": "FeatureCollection",
  "features": [
    {
      "type": "Feature",
      "geometry": {
        "type": "LineString",
        "coordinates": [
          [
            114.284414,
            30.563642
          ],
          [
            114.287425,
            30.55016
          ],
          [
            114.28226,
            30.531558
          ]
        ]
      },
      "properties": {
        "id": "route-memory",
        "name": "城市记忆与三镇联系路线",
        "day": "组 A",
        "group": "黄子木组",
        "date": "2026-07-19",
        "sampleCount": 19,
        "mode": "City Walk + 公共交通",
        "color": "#08768d",
        "summary": "从汉江两岸到武汉长江大桥，观察桥梁如何进入城市记忆。"
      }
    },
    {
      "type": "Feature",
      "geometry": {
        "type": "LineString",
        "coordinates": [
          [
            114.243728,
            30.486183
          ],
          [
            114.261776,
            30.507768
          ],
          [
            114.28226,
            30.531558
          ]
        ]
      },
      "properties": {
        "id": "route-public-space",
        "name": "桥下空间与民生获得感路线",
        "day": "组 B",
        "group": "夏梓渊组",
        "date": "2026-07-19",
        "sampleCount": 14,
        "mode": "实地观察 + 访谈",
        "color": "#2b8ba0",
        "summary": "围绕南部过江通道，记录桥下空间、江滩活动和通勤体验。"
      }
    },
    {
      "type": "Feature",
      "geometry": {
        "type": "LineString",
        "coordinates": [
          [
            114.325958,
            30.602342
          ],
          [
            114.345371,
            30.626809
          ],
          [
            114.398575,
            30.665824
          ]
        ]
      },
      "properties": {
        "id": "route-network",
        "name": "综合交通与区域协同路线",
        "day": "组 C",
        "group": "明志杰组",
        "date": "2026-07-19",
        "sampleCount": 13,
        "mode": "资料核验 + 远眺观察",
        "color": "#5aaabc",
        "summary": "从长江二桥到天兴洲长江大桥，理解过江通道网络化。"
      }
    },
    {
      "type": "Feature",
      "geometry": {
        "type": "LineString",
        "coordinates": [
          [
            114.284414,
            30.563642
          ],
          [
            114.287425,
            30.55016
          ],
          [
            114.28226,
            30.531558
          ],
          [
            114.261776,
            30.507768
          ],
          [
            114.243728,
            30.486183
          ],
          [
            114.325958,
            30.602342
          ],
          [
            114.345371,
            30.626809
          ],
          [
            114.398575,
            30.665824
          ]
        ]
      },
      "properties": {
        "id": "route-bridge-chain",
        "name": "武汉桥梁群串联线",
        "day": "串联线",
        "mode": "桥梁地理顺序",
        "color": "#cf6245",
        "summary": "按武汉桥梁群的地理顺序，将 8 座桥串联为一条连续路线。"
      }
    }
  ]
}
